NORAD_CAT_ID,OBJECT_NAME,OBJECT_TYPE,EPOCH,MEAN_MOTION,ECCENTRICITY,INCLINATION,RA_OF_ASC_NODE,ARG_OF_PERICENTER,MEAN_ANOMALY,BSTAR,MEAN_MOTION_DOT,MEAN_MOTION_DDOT,TLE_LINE0,TLE_LINE1,TLE_LINE2,SEMIMAJOR_AXIS,PERIOD,APOGEE,PERIGEE,DECAYED
53038.0,STARLINK-4156,PAYLOAD,2024-01-03 12:48:05,15.08851616,0.0001599,53.2165,48.2049,108.8227,251.2939,0.00011013,1.466e-05,0.0,0 STARLINK-4156,1 53038U 22076BE  24003.53339560  .00001466  00000-0  11013-3 0  9995,2 53038  53.2165  48.2049 0001599 108.8227 251.2939 15.08851616 83397,6917.845,95.437,540.816,538.604,0.0
53038.0,STARLINK-4156,PAYLOAD,2024-01-04 03:06:35,15.08829532,0.000126,53.2167,45.5303,63.7063,296.4058,-6.0485e-05,-1.25e-05,0.0,0 STARLINK-4156,1 53038U 22076BE  24004.12957435 -.00001250  00000-0 -60485-4 0  9999,2 53038  53.2167  45.5303 0001260  63.7063 296.4058 15.08829532 83489,6917.912,95.438,540.649,538.906,0.0
53038.0,STARLINK-4156,PAYLOAD,2024-01-04 09:28:07,15.08834674,0.0001495,53.2198,44.3452,80.996,279.1201,-2.1823e-05,-6.35e-06,0.0,0 STARLINK-4156,1 53038U 22076BE  24004.39453060 -.00000635  00000-0 -21823-4 0  9992,2 53038  53.2198  44.3452 0001495  80.9960 279.1201 15.08834674 83528,6917.897,95.438,540.796,538.727,0.0
53038.0,STARLINK-4156,PAYLOAD,2024-01-04 12:38:53,15.08837811,0.0001612,53.2177,43.7439,101.8771,258.2402,-2.1245e-05,-6.26e-06,0.0,0 STARLINK-4156,1 53038U 22076BE  24004.52700793 -.00000626  00000-0 -21245-4 0  9993,2 53038  53.2177  43.7439 0001612 101.8771 258.2402 15.08837811 83085,6917.887,95.438,540.867,538.637,0.0
53038.0,STARLINK-4156,PAYLOAD,2024-01-05 02:57:21,15.08804453,0.0001651,53.2181,41.0668,116.8072,243.3089,0.00040367,6.136e-05,0.0,0 STARLINK-4156,1 53038U 22076BE  24005.12317122  .00006136  00000-0  40367-3 0  9995,2 53038  53.2181  41.0668 0001651 116.8072 243.3089 15.08804453 83631,6917.989,95.44,540.996,538.712,0.0
53038.0,STARLINK-4156,PAYLOAD,2024-01-05 12:29:40,15.08849202,0.0001762,53.2177,39.2827,118.3696,241.7474,-6.5397e-05,-1.329e-05,0.0,0 STARLINK-4156,1 53038U 22076BE  24005.52060378 -.00001329  00000-0 -65397-4 0  9999,2 53038  53.2177  39.2827 0001762 118.3696 241.7474 15.08849202 83691,6917.852,95.437,540.936,538.498,0.0
53038.0,STARLINK-4156,PAYLOAD,2024-01-06 01:12:45,15.08833063,0.0001612,53.2176,36.9035,92.5744,267.5433,7.1234e-05,8.46e-06,0.0,0 STARLINK-4156,1 53038U 22076BE  24006.05053212  .00000846  00000-0  71234-4 0  9995,2 53038  53.2176  36.9035 0001612  92.5744 267.5433 15.08833063 83774,6917.902,95.438,540.882,538.651,0.0
53038.0,STARLINK-4156,PAYLOAD,2024-01-06 10:45:04,15.08840128,0.0001637,53.2177,35.1195,92.4004,267.7176,0.00012292,1.669e-05,0.0,0 STARLINK-4156,1 53038U 22076BE  24006.44796763  .00001669  00000-0  12292-3 0  9995,2 53038  53.2177  35.1195 0001637  92.4004 267.7176 15.08840128 83831,6917.88,95.438,540.877,538.613,0.0
53038.0,STARLINK-4156,PAYLOAD,2024-01-06 23:28:10,15.08826926,0.0001746,53.2175,32.7411,103.0639,257.0548,0.00017419,2.484e-05,0.0,0 STARLINK-4156,1 53038U 22076BE  24006.97789622  .00002484  00000-0  17419-3 0  9991,2 53038  53.2175  32.7411 0001746 103.0639 257.0548 15.08826926 83911,6917.92,95.438,540.993,538.577,0.0
53038.0,STARLINK-4156,PAYLOAD,2024-01-07 10:35:51,15.08839807,0.0001643,53.2173,30.6588,90.0514,270.0666,3.5817e-05,2.82e-06,0.0,0 STARLINK-4156,1 53038U 22076BE  24007.44157210  .00000282  00000-0  35817-4 0  9993,2 53038  53.2173  30.6588 0001643  90.0514 270.0666 15.08839807 83989,6917.881,95.438,540.883,538.609,0.0
53038.0,STARLINK-4156,PAYLOAD,2024-01-08 08:51:15,15.08842065,0.0001583,53.2171,26.4969,82.03,278.0871,5.5558e-05,5.96e-06,0.0,0 STARLINK-4156,1 53038U 22076BE  24008.36893219  .00000596  00000-0  55558-4 0  9993,2 53038  53.2171  26.4969 0001583  82.0300 278.0871 15.08842065 83661,6917.874,95.437,540.834,538.644,0.0
53038.0,STARLINK-4156,PAYLOAD,2024-01-09 00:45:07,15.08838352,0.0001548,53.2174,23.5238,90.4599,269.6571,7.5296e-05,9.1e-06,0.0,0 STARLINK-4156,1 53038U 22076BE  24009.03133399  .00000910  00000-0  75296-4 0  9995,2 53038  53.2174  23.5238 0001548  90.4599 269.6571 15.08838352 84225,6917.885,95.438,540.821,538.68,0.0
53038.0,STARLINK-4156,PAYLOAD,2024-01-09 07:06:39,15.08842102,0.0001773,53.2174,22.3358,74.9983,285.1206,9.9793e-05,1.301e-05,0.0,0 STARLINK-4156,1 53038U 22076BE  24009.29629240  .00001301  00000-0  99793-4 0  9991,2 53038  53.2174  22.3358 0001773  74.9983 285.1206 15.08842102 83808,6917.874,95.437,540.966,538.512,0.0
53038.0,STARLINK-4156,PAYLOAD,2024-01-10 05:22:02,15.0887044,0.0002332,53.2192,18.1825,44.6613,315.4567,-8.4719e-05,-1.638e-05,0.0,0 STARLINK-4156,1 53038U 22076BE  24010.22363925 -.00001638  00000-0 -84719-4 0  9998,2 53038  53.2192  18.1825 0002332  44.6613 315.4567 15.08870440 84406,6917.787,95.436,541.266,538.039,0.0
53038.0,STARLINK-4156,PAYLOAD,2024-01-10 06:57:25,15.08869757,0.0002167,53.2192,17.8826,52.1692,307.9496,2.285e-05,7.6e-07,0.0,0 STARLINK-4156,1 53038U 22076BE  24010.28987727  .00000076  00000-0  22850-4 0  9997,2 53038  53.2192  17.8826 0002167  52.1692 307.9496 15.08869757 83955,6917.789,95.436,541.154,538.155,0.0
53038.0,STARLINK-4156,PAYLOAD,2024-01-11 03:37:26,15.08845871,0.000171,53.2186,14.0089,100.2552,259.8633,4.0757e-05,3.61e-06,0.0,0 STARLINK-4156,1 53038U 22076BE  24011.15100516  .00000361  00000-0  40757-4 0  9990,2 53038  53.2186  14.0089 0001710 100.2552 259.8633 15.08845871 84546,6917.862,95.437,540.91,538.544,0.0
53038.0,STARLINK-4156,PAYLOAD,2024-01-11 09:58:59,15.08847096,0.0001548,53.2182,12.8179,101.4756,258.6411,5.0661e-05,5.19e-06,0.0,0 STARLINK-4156,1 53038U 22076BE  24011.41596296  .00000519  00000-0  50661-4 0  9993,2 53038  53.2182  12.8179 0001548 101.4756 258.6411 15.08847096 84122,6917.859,95.437,540.795,538.653,0.0
53038.0,STARLINK-4156,PAYLOAD,2024-01-12 03:28:14,15.0884363,0.0001565,53.2166,9.5428,78.9428,281.174,-0.00021807,-3.757e-05,0.0,0 STARLINK-4156,1 53038U 22076BE  24012.14461293 -.00003757  00000-0 -21807-3 0  9990,2 53038  53.2166   9.5428 0001565  78.9428 281.1740 15.08843630 84695,6917.869,95.437,540.817,538.652,0.0
53038.0,STARLINK-4156,PAYLOAD,2024-01-12 09:49:46,15.0884647,0.0001667,53.2175,8.3566,81.0343,279.0838,-0.00014493,-2.594e-05,0.0,0 STARLINK-4156,1 53038U 22076BE  24012.40956927 -.00002594  00000-0 -14493-3 0  9993,2 53038  53.2175   8.3566 0001667  81.0343 279.0838 15.08846470 84272,6917.861,95.437,540.879,538.572,0.0
53038.0,STARLINK-4156,PAYLOAD,2024-01-13 04:54:25,15.08828046,0.0001425,53.2176,4.7859,94.9091,265.2064,3.2202e-06,-2.37e-06,0.0,0 STARLINK-4156,1 53038U 22076BE  24013.20446414 -.00000237  00000-0  32202-5 0  9998,2 53038  53.2176   4.7859 0001425  94.9091 265.2064 15.08828046 84854,6917.917,95.438,540.768,538.796,0.0
53038.0,STARLINK-4156,PAYLOAD,2024-01-13 09:40:35,15.08828333,0.0001504,53.2179,3.8946,101.0058,259.1104,1.4192e-05,-6.2e-07,0.0,0 STARLINK-4156,1 53038U 22076BE  24013.40318432 -.00000062  00000-0  14192-4 0  9991,2 53038  53.2179   3.8946 0001504 101.0058 259.1104 15.08828333 84424,6917.916,95.438,540.822,538.741,0.0
53038.0,STARLINK-4156,PAYLOAD,2024-01-14 04:45:12,15.08838603,0.0001461,53.2173,0.3275,83.9428,276.1731,0.00020558,2.985e-05,0.0,0 STARLINK-4156,1 53038U 22076BE  24014.19806171  .00002985  00000-0  20558-3 0  9997,2 53038  53.2173   0.3275 0001461  83.9428 276.1731 15.08838603 85007,6917.885,95.438,540.76,538.739,0.0
53038.0,STARLINK-4156,PAYLOAD,2024-01-14 07:55:58,15.08847002,0.0001493,53.217,359.7326,89.5571,270.5592,0.00034084,5.142e-05,0.0,0 STARLINK-4156,1 53038U 22076BE  24014.33053974  .00005142  00000-0  34084-3 0  9995,2 53038  53.2170 359.7326 0001493  89.5571 270.5592 15.08847002 84564,6917.859,95.437,540.757,538.691,0.0
53038.0,STARLINK-4156,PAYLOAD,2024-01-15 03:00:36,15.08846854,0.0001561,53.2176,356.1643,102.4768,257.6399,0.0002563,3.794e-05,0.0,0 STARLINK-4156,1 53038U 22076BE  24015.12541916  .00003794  00000-0  25630-3 0  9999,2 53038  53.2176 356.1643 0001561 102.4768 257.6399 15.08846854 85142,6917.859,95.437,540.804,538.645,0.0
53038.0,STARLINK-4156,PAYLOAD,2024-01-15 07:46:45,15.08858326,0.0001587,53.2171,355.2731,89.0005,271.1169,0.00041959,6.399e-05,0.0,0 STARLINK-4156,1 53038U 22076BE  24015.32413495  .00006399  00000-0  41959-3 0  9997,2 53038  53.2171 355.2731 0001587  89.0005 271.1169 15.08858326 85173,6917.824,95.436,540.787,538.592,0.0
53038.0,STARLINK-4156,PAYLOAD,2024-01-16 07:37:32,15.08838596,0.000158,53.2173,350.8101,94.0663,266.051,-5.4839e-05,-1.161e-05,0.0,0 STARLINK-4156,1 53038U 22076BE  24016.31774112 -.00001161  00000-0 -54839-4 0  9999,2 53038  53.2173 350.8101 0001580  94.0663 266.0510 15.08838596 85323,6917.885,95.438,540.843,538.657,0.0
53038.0,STARLINK-4156,PAYLOAD,2024-01-17 04:17:33,15.08848681,0.0001843,53.2182,346.9432,97.5676,262.5525,0.0002003,2.902e-05,0.0,0 STARLINK-4156,1 53038U 22076BE  24017.17886054  .00002902  00000-0  20030-3 0  9990,2 53038  53.2182 346.9432 0001843  97.5676 262.5525 15.08848681 85457,6917.854,95.437,540.994,538.444,0.0
53038.0,STARLINK-4156,PAYLOAD,2024-01-18 04:08:20,15.0884906,0.0001599,53.2178,342.4833,102.0501,258.0671,0.00024323,3.586e-05,0.0,0 STARLINK-4156,1 53038U 22076BE  24018.17246050  .00003586  00000-0  24323-3 0  9995,2 53038  53.2178 342.4833 0001599 102.0501 258.0671 15.08849060 85606,6917.853,95.437,540.824,538.612,0.0
53038.0,STARLINK-4156,PAYLOAD,2024-01-18 21:37:35,15.088416,0.0001849,53.2184,339.2184,106.8913,253.2282,-5.2781e-05,-1.128e-05,0.0,0 STARLINK-4156,1 53038U 22076BE  24018.90110231 -.00001128  00000-0 -52781-4 0  9999,2 53038  53.2184 339.2184 0001849 106.8913 253.2282 15.08841600 85251,6917.875,95.437,541.02,538.461,0.0
53038.0,STARLINK-4156,PAYLOAD,2024-01-19 03:59:07,15.08844663,0.000156,53.2164,338.0255,94.6038,265.5132,1.4045e-05,-6.4e-07,0.0,0 STARLINK-4156,1 53038U 22076BE  24019.16606249 -.00000064  00000-0  14045-4 0  9995,2 53038  53.2164 338.0255 0001560  94.6038 265.5132 15.08844663 85754,6917.866,95.437,540.81,538.652,0.0
